{
  "type": "FeatureCollection",
  "features": [
    {
      "type": "Feature",
      "properties": {
        "norad_id": 45344,
        "name": "BEIDOU-3 G2 (C60)",
        "group": "gnss",
        "lat": 2.4802409334331776,
        "lon": 125.73221110320364,
        "alt_km": 35803.754260751884,
        "timestamp": "2025-12-10T21:43:22.332095+00:00",
        "meta_object_name": "BEIDOU-3 G2 (C60)",
        "meta_object_id": "2020-017A",
        "meta_epoch": "2025-12-08T17:24:33.367680",
        "meta_mean_motion": 1.00273181,
        "meta_eccentricity": 0.00043587,
        "meta_inclination": 2.49,
        "meta_ra_of_asc_node": 43.8378,
        "meta_arg_of_pericenter": 265.5358,
        "meta_mean_anomaly": 109.5017,
        "meta_ephemeris_type": 0,
        "meta_classification_type": "U",
        "meta_norad_cat_id": 45344,
        "meta_element_set_no": 999,
        "meta_rev_at_epoch": 2135,
        "meta_bstar": 0,
        "meta_mean_motion_dot": -1.39e-06,
        "meta_mean_motion_ddot": 0,
        "tle_line1": "1 45344U 20017A   25342.72538620 -.00000139  00000+0  00000+0 0  9991",
        "tle_line2": "2 45344   2.4900  43.8378 0004358 265.5358 109.5017  1.00273181 21351"
      },
      "geometry": {
        "type": "Point",
        "coordinates": [
          125.73221110320364,
          2.4802409334331776
        ]
      }
    },
    {
      "type": "Feature",
      "properties": {
        "norad_id": 45358,
        "name": "COSMOS 2545 (760)",
        "group": "gnss",
        "lat": -56.658081366249505,
        "lon": -174.4111270838864,
        "alt_km": 19105.79206051864,
        "timestamp": "2025-12-10T21:43:22.332106+00:00",
        "meta_object_name": "COSMOS 2545 (760)",
        "meta_object_id": "2020-018A",
        "meta_epoch": "2025-12-10T02:42:20.782656",
        "meta_mean_motion": 2.13102243,
        "meta_eccentricity": 0.00118681,
        "meta_inclination": 64.4713,
        "meta_ra_of_asc_node": 319.0621,
        "meta_arg_of_pericenter": 248.8052,
        "meta_mean_anomaly": 111.0655,
        "meta_ephemeris_type": 0,
        "meta_classification_type": "U",
        "meta_norad_cat_id": 45358,
        "meta_element_set_no": 999,
        "meta_rev_at_epoch": 4463,
        "meta_bstar": 0,
        "meta_mean_motion_dot": -5.1e-07,
        "meta_mean_motion_ddot": 0,
        "tle_line1": "1 45358U 20018A   25344.11274054 -.00000051  00000+0  00000+0 0  9993",
        "tle_line2": "2 45358  64.4713 319.0621 0011868 248.8052 111.0655  2.13102243 44631"
      },
      "geometry": {
        "type": "Point",
        "coordinates": [
          -174.4111270838864,
          -56.658081366249505
        ]
      }
    },
    {
      "type": "Feature",
      "properties": {
        "norad_id": 45807,
        "name": "BEIDOU-3 G3 (C61)",
        "group": "gnss",
        "lat": 1.9891923430191965,
        "lon": 156.29653988670293,
        "alt_km": 35805.32304223346,
        "timestamp": "2025-12-10T21:43:22.332117+00:00",
        "meta_object_name": "BEIDOU-3 G3 (C61)",
        "meta_object_id": "2020-040A",
        "meta_epoch": "2025-12-08T17:33:17.532288",
        "meta_mean_motion": 1.00275813,
        "meta_eccentricity": 0.00060306,
        "meta_inclination": 1.9816,
        "meta_ra_of_asc_node": 66.5886,
        "meta_arg_of_pericenter": 306.262,
        "meta_mean_anomaly": 78.7159,
        "meta_ephemeris_type": 0,
        "meta_classification_type": "U",
        "meta_norad_cat_id": 45807,
        "meta_element_set_no": 999,
        "meta_rev_at_epoch": 2016,
        "meta_bstar": 0,
        "meta_mean_motion_dot": -3.52e-06,
        "meta_mean_motion_ddot": 0,
        "tle_line1": "1 45807U 20040A   25342.73145292 -.00000352  00000+0  00000+0 0  9998",
        "tle_line2": "2 45807   1.9816  66.5886 0006030 306.2620  78.7159  1.00275813 20161"
      },
      "geometry": {
        "type": "Point",
        "coordinates": [
          156.29653988670293,
          1.9891923430191965
        ]
      }
    },
    {
      "type": "Feature",
      "properties": {
        "norad_id": 45854,
        "name": "GPS BIII-3  (PRN 23)",
        "group": "gnss",
        "lat": 55.47322740723185,
        "lon": 142.47234503273347,
        "alt_km": 20214.870701805652,
        "timestamp": "2025-12-10T21:43:22.332129+00:00",
        "meta_object_name": "GPS BIII-3  (PRN 23)",
        "meta_object_id": "2020-041A",
        "meta_epoch": "2025-12-10T06:22:51.669120",
        "meta_mean_motion": 2.00561869,
        "meta_eccentricity": 0.0060434,
        "meta_inclination": 56.5455,
        "meta_ra_of_asc_node": 36.2815,
        "meta_arg_of_pericenter": 203.3429,
        "meta_mean_anomaly": 154.8897,
        "meta_ephemeris_type": 0,
        "meta_classification_type": "U",
        "meta_norad_cat_id": 45854,
        "meta_element_set_no": 999,
        "meta_rev_at_epoch": 4024,
        "meta_bstar": 0,
        "meta_mean_motion_dot": -9e-07,
        "meta_mean_motion_ddot": 0,
        "tle_line1": "1 45854U 20041A   25344.26587580 -.00000090  00000+0  00000+0 0  9990",
        "tle_line2": "2 45854  56.5455  36.2815 0060434 203.3429 154.8897  2.00561869 40242"
      },
      "geometry": {
        "type": "Point",
        "coordinates": [
          142.47234503273347,
          55.47322740723185
        ]
      }
    },
    {
      "type": "Feature",
      "properties": {
        "norad_id": 46114,
        "name": "GALAXY 30 (WAAS/PRN 135)",
        "group": "gnss",
        "lat": -0.026596462020392255,
        "lon": -79.27895258866722,
        "alt_km": 35776.72965462621,
        "timestamp": "2025-12-10T21:43:22.332140+00:00",
        "meta_object_name": "GALAXY 30 (WAAS/PRN 135)",
        "meta_object_id": "2020-056C",
        "meta_epoch": "2025-12-10T10:25:19.291584",
        "meta_mean_motion": 1.00272067,
        "meta_eccentricity": 0.00023436,
        "meta_inclination": 0.017,
        "meta_ra_of_asc_node": 325.7585,
        "meta_arg_of_pericenter": 293.7361,
        "meta_mean_anomaly": 211.2428,
        "meta_ephemeris_type": 0,
        "meta_classification_type": "U",
        "meta_norad_cat_id": 46114,
        "meta_element_set_no": 999,
        "meta_rev_at_epoch": 1940,
        "meta_bstar": 0,
        "meta_mean_motion_dot": 4.1e-07,
        "meta_mean_motion_ddot": 0,
        "tle_line1": "1 46114U 20056C   25344.43425106  .00000041  00000+0  00000+0 0  9995",
        "tle_line2": "2 46114   0.0170 325.7585 0002343 293.7361 211.2428  1.00272067 19403"
      },
      "geometry": {
        "type": "Point",
        "coordinates": [
          -79.27895258866722,
          -0.026596462020392255
        ]
      }
    },
    {
      "type": "Feature",
      "properties": {
        "norad_id": 46805,
        "name": "COSMOS 2547 (705K)",
        "group": "gnss",
        "lat": 61.4167720135539,
        "lon": -41.95775887134079,
        "alt_km": 19132.995708416267,
        "timestamp": "2025-12-10T21:43:22.332155+00:00",
        "meta_object_name": "COSMOS 2547 (705K)",
        "meta_object_id": "2020-075A",
        "meta_epoch": "2025-12-08T21:25:56.196192",
        "meta_mean_motion": 2.13099854,
        "meta_eccentricity": 0.00063847,
        "meta_inclination": 64.5958,
        "meta_ra_of_asc_node": 198.8249,
        "meta_arg_of_pericenter": 229.7163,
        "meta_mean_anomaly": 130.3027,
        "meta_ephemeris_type": 0,
        "meta_classification_type": "U",
        "meta_norad_cat_id": 46805,
        "meta_element_set_no": 999,
        "meta_rev_at_epoch": 3985,
        "meta_bstar": 0,
        "meta_mean_motion_dot": 4.5e-07,
        "meta_mean_motion_ddot": 0,
        "tle_line1": "1 46805U 20075A   25342.89301153  .00000045  00000+0  00000+0 0  9990",
        "tle_line2": "2 46805  64.5958 198.8249 0006384 229.7163 130.3027  2.13099854 39856"
      },
      "geometry": {
        "type": "Point",
        "coordinates": [
          -41.95775887134079,
          61.4167720135539
        ]
      }
    },
    {
      "type": "Feature",
      "properties": {
        "norad_id": 46826,
        "name": "GPS BIII-4  (PRN 14)",
        "group": "gnss",
        "lat": 49.547167243535625,
        "lon": -83.18455334305669,
        "alt_km": 20293.242769497752,
        "timestamp": "2025-12-10T21:43:22.332166+00:00",
        "meta_object_name": "GPS BIII-4  (PRN 14)",
        "meta_object_id": "2020-078A",
        "meta_epoch": "2025-12-10T01:06:32.863680",
        "meta_mean_motion": 2.00566796,
        "meta_eccentricity": 0.00646005,
        "meta_inclination": 54.0157,
        "meta_ra_of_asc_node": 218.4503,
        "meta_arg_of_pericenter": 203.3563,
        "meta_mean_anomaly": 327.1751,
        "meta_ephemeris_type": 0,
        "meta_classification_type": "U",
        "meta_norad_cat_id": 46826,
        "meta_element_set_no": 999,
        "meta_rev_at_epoch": 3771,
        "meta_bstar": 0,
        "meta_mean_motion_dot": 7e-08,
        "meta_mean_motion_ddot": 0,
        "tle_line1": "1 46826U 20078A   25344.04621370  .00000007  00000+0  00000+0 0  9999",
        "tle_line2": "2 46826  54.0157 218.4503 0064600 203.3563 327.1751  2.00566796 37716"
      },
      "geometry": {
        "type": "Point",
        "coordinates": [
          -83.18455334305669,
          49.547167243535625
        ]
      }
    }
  ]
}